AEROCUBE 7B             
1 43042U 17071F   18363.58185694  .00003145  00000-0  87285-4 0  9993
2 43042  51.6373 168.7593 0004293 250.2778 109.7744 15.40067198 59702
AEROCUBE 7C             
1 43043U 17071G   18363.58189275  .00003177  00000-0  88082-4 0  9994
2 43043  51.6376 168.7696 0004376 252.1015 107.9493 15.40063907 59678
CHEFSAT                 
1 43044U 17071H   18363.88061666  .00006895  00000-0  16935-3 0  9998
2 43044  51.6379 164.8285 0004275 250.7563 109.2960 15.41839264 59754
ASGARDIA 1              
1 43049U 17071N   18363.67703258  .00003424  00000-0  93778-4 0  9996
2 43049  51.6381 167.9199 0001794 272.1557  87.9223 15.40183761 59683
ISARA                   
1 43050U 17071P   18363.52410580  .00005813  00000-0  14606-3 0  9991
2 43050  51.6373 166.9256 0001651 262.2799  97.7999 15.41464787 59690
FAUNA                   
1 43052U 17071R   18363.51463533  .00003087  00000-0  84985-4 0  9997
2 43052  51.6379 168.3498 0001733 264.3608  95.7179 15.40384509 59662
CORVUS BC3              
1 43118U 18004H   18363.48419359  .00000770  00000-0  36208-4 0  9991
2 43118  97.5101  66.2216 0011873 126.9752 233.2573 15.22564379 53420
MICROMAS-2A             
1 43131U 18004W   18363.48183525  .00001850  00000-0  80513-4 0  9997
2 43131  97.5117  66.5739 0010898 129.2652 230.9554 15.23487655 53443
CICERO 7                
1 43143U 18004AJ  18363.13312901  .00001298  00000-0  56997-4 0  9999
2 43143  97.5109  66.4124 0008800 137.2856 222.9067 15.23743425 53405
GOMX4-B                 
1 43196U 18015E   18363.90864413  .00000393  00000-0  19224-4 0  9991
2 43196  97.3696 129.1580 0018223 184.7789 175.3277 15.23769896 50330
GOMX4-A                 
1 43197U 18015F   18363.86367191  .00000388  00000-0  18955-4 0  9992
2 43197  97.3704 129.1217 0018909 184.7607 331.7253 15.23862878 50334
1KUNS-PF                
1 43466U 98067NP  18363.70285797  .00019391  00000-0  23771-3 0  9995
2 43466  51.6387 118.3608 0000519 152.7444 207.3577 15.60354147 36178
UBAKUSAT                
1 43467U 98067NQ  18363.78377808  .00013837  00000-0  18050-3 0  9992
2 43467  51.6381 118.8989 0002760 139.5684 220.5514 15.58998926 36184
BATSU-CS1 (IRAZU)       
1 43468U 98067NR  18363.69786788  .00024436  00000-0  28619-3 0  9993
2 43468  51.6383 117.5767 0000300 152.0985 208.0025 15.61391030136174
CUBERRT                 
1 43546U 98067NU  18363.56871267  .00007353  00000-0  10023-3 0  9992
2 43546  51.6381 121.9534 0005748 207.1085 152.9608 15.58662111 26252
TEMPEST-D               
1 43547U 98067NV  18363.61094901  .00004925  00000-0  75966-4 0  9991
2 43547  51.6387 122.9814 0005830 198.7094 161.3684 15.56132107 25924
RAINCUBE                
1 43548U 98067NW  18363.55564249  .00014344  00000-0  19778-3 0  9996
2 43548  51.6384 122.6142 0005712 211.2894 148.7759 15.57464468 26372
HALOSAT                 
1 43549U 98067NX  18363.81247728  .00013783  00000-0  19030-3 0  9993
2 43549  51.6386 121.3313 0005608 214.5696 145.4932 15.57468685 25978
ENDUROSAT ONE           
1 43551U 98067NZ  18363.56948762  .00016531  00000-0  22058-3 0  9992
2 43551  51.6385 121.9556 0006053 221.6358 138.4174 15.58216253 26350
EQUISAT                 
1 43552U 98067PA  18363.52616827  .00014261  00000-0  19446-3 0  9998
2 43552  51.6387 122.4188 0006279 220.9480 139.1041 15.57767715 26307
AEROCUBE 12A            
1 43556U 18046C   18363.60686554  .00000685  00000-0  37384-4 0  9991
2 43556  51.6418 156.9736 0008642 173.6358 186.4733 15.28150632 25394
AEROCUBE 12B            
1 43557U 18046D   18363.60984768  .00000515  00000-0  31342-4 0  9990
2 43557  51.6418 156.9920 0008649 173.9134 186.1952 15.28091218 25341
UITMSAT-1               
1 43589U 98067PD  18363.70889511  .00015520  00000-0  21334-3 0  9998
2 43589  51.6379 122.1334 0005667 230.3698 129.6795 15.57473872 22061
MAYA-1                  
1 43590U 98067PE  18363.57810994  .00015187  00000-0  20875-3 0  9992
2 43590  51.6381 122.7610 0005758 230.9312 129.1169 15.57494720 21973
BHUTAN-1                
1 43591U 98067PF  18363.57445658  .00014931  00000-0  20502-3 0  9997
2 43591  51.6384 122.7370 0005836 231.9353 128.1113 15.57538867 21972
SIRIUSSAT-1             
1 43595U 98067PG  18363.87384467  .00014855  00000-0  20799-3 0  9997
2 43595  51.6382 121.7310 0003670 181.7274 178.3705 15.57024953 21199
SIRIUSSAT-2             
1 43596U 98067PH  18363.56578711  .00014863  00000-0  20936-3 0  9993
2 43596  51.6389 123.4371 0004299 184.2362 175.8594 15.56859831 21140
TANUSHA-3               
1 43597U 98067PJ  18363.54353698  .00017493  00000-0  24027-3 0  9994
2 43597  51.6366 123.2609 0003765 197.6707 162.4155 15.57401662 21147
SURFSAT                 
1 43614U 18070B   18363.57498663  .00003054  00000-0  85196-4 0  9998
2 43614  93.0377 292.9265 0013940 241.3319 118.6533 15.36728002 16125
CP-7 (DAVE)             
1 43615U 18070C   18363.57503473  .00002811  00000-0  78489-4 0  9992
2 43615  93.0377 292.9273 0013993 241.0933 118.8916 15.36707770 16128
ELFIN-B                 
1 43616U 18070D   18363.56578640  .00004250  00000-0  11753-3 0  9999
2 43616  93.0343 292.8818 0014949 245.8012 114.1679 15.36959224 16126
ELFIN-A                 
1 43617U 18070E   18363.82397492  .00004219  00000-0  11657-3 0  9991
2 43617  93.0395 293.0708 0014092 239.9699 120.0157 15.37000158 16164
DEBRISSAT-1             
1 43621U 98067PM  18363.55702107  .00110819  00000-0  91844-3 0  9993
2 43621  51.6460 118.9396 0005393 233.7857 126.2736 15.69364806 16194
CUBEBEL-1 (BSUSAT-1)    
1 43666U 18083E   18363.82941265  .00000553  00000-0  31161-4 0  9992
2 43666  97.5339  24.3694 0016850  64.2331  55.2431 15.17209519  9379
DEBRISSAT-2             
1 43680U 98067PR  18363.79722949  .00014692  00000-0  20568-3 0  9997
2 43680  51.6382 121.9582 0003313 204.7786 155.3062 15.57039131 29929
CICERO 10               
1 43690U 18088A   18363.59924395  .00001180  00000-0  53800-4 0  9994
2 43690  85.0387  71.1143 0017570 112.3115 247.9990 15.19324920  7379
IRVINE01                
1 43693U 18088D   18363.42791073  .00002218  00000-0  98765-4 0  9996
2 43693  85.0364  71.1490 0021171 101.7290 258.6328 15.20626235  7336
PROXIMA I               
1 43694U 18088E   18363.60921141  .00000926  00000-0  39592-4 0  9995
2 43694  85.0331  70.9795 0021996  93.0597 267.3162 15.21073309  7370
PROXIMA II              
1 43696U 18088G   18363.60900070  .00000939  00000-0  40174-4 0  9997
2 43696  85.0332  70.9798 0022034  93.0442 267.3321 15.21079275  7363
FACSAT-1                
1 43721U 18096C   18363.85496790  .00001479  00000-0  60593-4 0  9998
2 43721  97.4817  68.8622 0017640 207.4129 152.6180 15.25781649  4689
CENTAURI-2              
1 43722U 18096D   18363.85334450  .00001891  00000-0  76449-4 0  9998
2 43722  97.4818  68.8648 0017751 208.3992 151.6280 15.25874399  4674
